IRIDIUM 136             
1 42962U 17061H   24201.84743811  .00000116  00000+0  34269-4 0  9998
2 42962  86.3991 316.6691 0002324 101.6464 258.4993 14.34217408354888
